{"type": "FeatureCollection", "features": [ {"type": "Feature", "properties": {"norad_id": 41774, "name": "SKYSAT-C3", "group": "resource", "lat": -71.2611322302531, "lon": 35.65269101221226, "alt_km": 442.3871488259092, "timestamp": "2025-12-06T14:35:36.784879+00:00", "meta": {"OBJECT_NAME": "SKYSAT-C3", "OBJECT_ID": "2016-058E", "EPOCH": "2025-12-06T04:01:11.652672", "MEAN_MOTION": 15.4405925, "ECCENTRICITY": 0.00014445, "INCLINATION": 96.9302, "RA_OF_ASC_NODE": 14.2214, "ARG_OF_PERICENTER": 103.1252, "MEAN_ANOMALY": 257.0158, "EPHEMERIS_TYPE": 0, "CLASSIFICATION_TYPE": "U", "NORAD_CAT_ID": 41774, "ELEMENT_SET_NO": 999, "REV_AT_EPOCH": 51624, "BSTAR": 0.00056996794, "MEAN_MOTION_DOT": 0.00026, "MEAN_MOTION_DDOT": 0}, "tle": {"line1": "1 41774U 16058E   25340.16749598  .00026000  00000+0  56997-3 0  9992", "line2": "2 41774  96.9302  14.2214 0001444 103.1252 257.0158 15.44059250516246"}}, "geometry": {"type": "Point", "coordinates": [35.65269101221226, -71.2611322302531]}}, {"type": "Feature", "properties": {"norad_id": 41785, "name": "ALSAT 1B", "group": "resource", "lat": -62.867972679013185, "lon": 8.13990060310049, "alt_km": 669.0535640394482, "timestamp": "2025-12-06T14:35:36.784889+00:00", "meta": {"OBJECT_NAME": "ALSAT 1B", "OBJECT_ID": "2016-059C", "EPOCH": "2025-12-06T06:43:38.210304", "MEAN_MOTION": 14.72065523, "ECCENTRICITY": 0.0010523, "INCLINATION": 97.7816, "RA_OF_ASC_NODE": 352.3488, "ARG_OF_PERICENTER": 122.1046, "MEAN_ANOMALY": 238.1185, "EPHEMERIS_TYPE": 0, "CLASSIFICATION_TYPE": "U", "NORAD_CAT_ID": 41785, "ELEMENT_SET_NO": 999, "REV_AT_EPOCH": 49219, "BSTAR": 0.00015899502, "MEAN_MOTION_DOT": 9.53e-06, "MEAN_MOTION_DDOT": 0}, "tle": {"line1": "1 41785U 16059C   25340.28030336  .00000953  00000+0  15900-3 0  9999", "line2": "2 41785  97.7816 352.3488 0010523 122.1046 238.1185 14.72065523492193"}}, "geometry": {"type": "Point", "coordinates": [8.13990060310049, -62.867972679013185]}}, {"type": "Feature", "properties": {"norad_id": 41787, "name": "PATHFINDER 1", "group": "resource", "lat": 59.34239964446528, "lon": 177.0612665469306, "alt_km": 644.0429601734531, "timestamp": "2025-12-06T14:35:36.784899+00:00", "meta": {"OBJECT_NAME": "PATHFINDER 1", "OBJECT_ID": "2016-059E", "EPOCH": "2025-12-06T05:52:07.900896", "MEAN_MOTION": 14.6730401, "ECCENTRICITY": 0.00300215, "INCLINATION": 97.8138, "RA_OF_ASC_NODE": 343.3196, "ARG_OF_PERICENTER": 100.9233, "MEAN_ANOMALY": 259.5353, "EPHEMERIS_TYPE": 0, "CLASSIFICATION_TYPE": "U", "NORAD_CAT_ID": 41787, "ELEMENT_SET_NO": 999, "REV_AT_EPOCH": 49141, "BSTAR": 0.00028001374, "MEAN_MOTION_DOT": 1.544e-05, "MEAN_MOTION_DDOT": 0}, "tle": {"line1": "1 41787U 16059E   25340.24453589  .00001544  00000+0  28001-3 0  9999", "line2": "2 41787  97.8138 343.3196 0030021 100.9233 259.5353 14.67304010491415"}}, "geometry": {"type": "Point", "coordinates": [177.0612665469306, 59.34239964446528]}}, {"type": "Feature", "properties": {"norad_id": 41790, "name": "SCATSAT 1", "group": "resource", "lat": -36.37439343999642, "lon": -148.85499849979726, "alt_km": 625.0826049226607, "timestamp": "2025-12-06T14:35:36.784910+00:00", "meta": {"OBJECT_NAME": "SCATSAT 1", "OBJECT_ID": "2016-059H", "EPOCH": "2025-12-06T03:52:40.855008", "MEAN_MOTION": 14.78901679, "ECCENTRICITY": 0.00559571, "INCLINATION": 98.1471, "RA_OF_ASC_NODE": 36.75, "ARG_OF_PERICENTER": 148.8194, "MEAN_ANOMALY": 211.6356, "EPHEMERIS_TYPE": 0, "CLASSIFICATION_TYPE": "U", "NORAD_CAT_ID": 41790, "ELEMENT_SET_NO": 999, "REV_AT_EPOCH": 7305, "BSTAR": 0.00043864665, "MEAN_MOTION_DOT": 3.263e-05, "MEAN_MOTION_DDOT": 0}, "tle": {"line1": "1 41790U 16059H   25340.16158397  .00003263  00000+0  43865-3 0  9998", "line2": "2 41790  98.1471  36.7500 0055957 148.8194 211.6356 14.78901679 73051"}}, "geometry": {"type": "Point", "coordinates": [-148.85499849979726, -36.37439343999642]}}, {"type": "Feature", "properties": {"norad_id": 41875, "name": "GOKTURK 1A", "group": "resource", "lat": -62.30927203465218, "lon": -111.11087116894363, "alt_km": 692.1413740333173, "timestamp": "2025-12-06T14:35:36.784921+00:00", "meta": {"OBJECT_NAME": "GOKTURK 1A", "OBJECT_ID": "2016-073A", "EPOCH": "2025-12-06T06:40:28.820640", "MEAN_MOTION": 14.62768323, "ECCENTRICITY": 0.00012399, "INCLINATION": 98.1437, "RA_OF_ASC_NODE": 232.7296, "ARG_OF_PERICENTER": 82.6791, "MEAN_ANOMALY": 277.4551, "EPHEMERIS_TYPE": 0, "CLASSIFICATION_TYPE": "U", "NORAD_CAT_ID": 41875, "ELEMENT_SET_NO": 999, "REV_AT_EPOCH": 48062, "BSTAR": 0.00022485566, "MEAN_MOTION_DOT": 1.1e-05, "MEAN_MOTION_DDOT": 0}, "tle": {"line1": "1 41875U 16073A   25340.27811135  .00001100  00000+0  22486-3 0  9990", "line2": "2 41875  98.1437 232.7296 0001239  82.6791 277.4551 14.62768323480621"}}, "geometry": {"type": "Point", "coordinates": [-111.11087116894363, -62.30927203465218]}}, {"type": "Feature", "properties": {"norad_id": 41877, "name": "RESOURCESAT-2A", "group": "resource", "lat": 6.926606518053747, "lon": -128.42504917913547, "alt_km": 822.2377863447191, "timestamp": "2025-12-06T14:35:36.784931+00:00", "meta": {"OBJECT_NAME": "RESOURCESAT-2A", "OBJECT_ID": "2016-074A", "EPOCH": "2025-12-06T07:01:33.749472", "MEAN_MOTION": 14.21595441, "ECCENTRICITY": 0.00011243, "INCLINATION": 98.7766, "RA_OF_ASC_NODE": 50.1861, "ARG_OF_PERICENTER": 286.2089, "MEAN_ANOMALY": 73.8965, "EPHEMERIS_TYPE": 0, "CLASSIFICATION_TYPE": "U", "NORAD_CAT_ID": 41877, "ELEMENT_SET_NO": 999, "REV_AT_EPOCH": 46689, "BSTAR": 0.00018625172, "MEAN_MOTION_DOT": 3.64e-06, "MEAN_MOTION_DDOT": 0}, "tle": {"line1": "1 41877U 16074A   25340.29275173  .00000364  00000+0  18625-3 0  9992", "line2": "2 41877  98.7766  50.1861 0001124 286.2089  73.8965 14.21595441466893"}}, "geometry": {"type": "Point", "coordinates": [-128.42504917913547, 6.926606518053747]}}, {"type": "Feature", "properties": {"norad_id": 41948, "name": "CARTOSAT-2D", "group": "resource", "lat": -8.27922521058816, "lon": -142.89040826439668, "alt_km": 509.6346955180061, "timestamp": "2025-12-06T14:35:36.784941+00:00", "meta": {"OBJECT_NAME": "CARTOSAT-2D", "OBJECT_ID": "2017-008A", "EPOCH": "2025-12-06T05:51:48.385728", "MEAN_MOTION": 15.19160475, "ECCENTRICITY": 0.00041123, "INCLINATION": 97.4397, "RA_OF_ASC_NODE": 37.8409, "ARG_OF_PERICENTER": 184.0544, "MEAN_ANOMALY": 176.0658, "EPHEMERIS_TYPE": 0, "CLASSIFICATION_TYPE": "U", "NORAD_CAT_ID": 41948, "ELEMENT_SET_NO": 999, "REV_AT_EPOCH": 48828, "BSTAR": 0.00045378153, "MEAN_MOTION_DOT": 9.478e-05, "MEAN_MOTION_DDOT": 0}, "tle": {"line1": "1 41948U 17008A   25340.24431002  .00009478  00000+0  45378-3 0  9999", "line2": "2 41948  97.4397  37.8409 0004112 184.0544 176.0658 15.19160475488284"}}, "geometry": {"type": "Point", "coordinates": [-142.89040826439668, -8.27922521058816]}}, {"type": "Feature", "properties": {"norad_id": 42063, "name": "SENTINEL-2B", "group": "resource", "lat": -60.51001487581724, "lon": 68.6094309360617, "alt_km": 796.8923403683284, "timestamp": "2025-12-06T14:35:36.784951+00:00", "meta": {"OBJECT_NAME": "SENTINEL-2B", "OBJECT_ID": "2017-013A", "EPOCH": "2025-12-06T06:29:23.122464", "MEAN_MOTION": 14.30812204, "ECCENTRICITY": 0.00011276, "INCLINATION": 98.5726, "RA_OF_ASC_NODE": 52.8071, "ARG_OF_PERICENTER": 97.8909, "MEAN_ANOMALY": 262.2402, "EPHEMERIS_TYPE": 0, "CLASSIFICATION_TYPE": "U", "NORAD_CAT_ID": 42063, "ELEMENT_SET_NO": 999, "REV_AT_EPOCH": 45705, "BSTAR": 0.00014494637, "MEAN_MOTION_DOT": 3.36e-06, "MEAN_MOTION_DDOT": 0}, "tle": {"line1": "1 42063U 17013A   25340.27040651  .00000336  00000+0  14495-3 0  9993", "line2": "2 42063  98.5726  52.8071 0001127  97.8909 262.2402 14.30812204457054"}}, "geometry": {"type": "Point", "coordinates": [68.6094309360617, -60.51001487581724]}}, {"type": "Feature", "properties": {"norad_id": 42767, "name": "CARTOSAT-2E", "group": "resource", "lat": 78.90038279847857, "lon": -99.84452408009231, "alt_km": 502.435586617622, "timestamp": "2025-12-06T14:35:36.784961+00:00", "meta": {"OBJECT_NAME": "CARTOSAT-2E", "OBJECT_ID": "2017-036C", "EPOCH": "2025-12-06T06:15:31.881024", "MEAN_MOTION": 15.19223622, "ECCENTRICITY": 0.00023473, "INCLINATION": 97.4564, "RA_OF_ASC_NODE": 37.932, "ARG_OF_PERICENTER": 270.3982, "MEAN_ANOMALY": 89.6983, "EPHEMERIS_TYPE": 0, "CLASSIFICATION_TYPE": "U", "NORAD_CAT_ID": 42767, "ELEMENT_SET_NO": 999, "REV_AT_EPOCH": 46885, "BSTAR": 0.00043895871, "MEAN_MOTION_DOT": 9.182e-05, "MEAN_MOTION_DDOT": 0}, "tle": {"line1": "1 42767U 17036C   25340.26078566  .00009182  00000+0  43896-3 0  9999", "line2": "2 42767  97.4564  37.9320 0002347 270.3982  89.6983 15.19223622468851"}}, "geometry": {"type": "Point", "coordinates": [-99.84452408009231, 78.90038279847857]}}, {"type": "Feature", "properties": {"norad_id": 42920, "name": "FORMOSAT-5", "group": "resource", "lat": -35.17284732665876, "lon": -130.81700131046506, "alt_km": 729.9801624469874, "timestamp": "2025-12-06T14:35:36.784973+00:00", "meta": {"OBJECT_NAME": "FORMOSAT-5", "OBJECT_ID": "2017-049A", "EPOCH": "2025-12-06T06:58:57.073440", "MEAN_MOTION": 14.509996, "ECCENTRICITY": 0.00101543, "INCLINATION": 98.2459, "RA_OF_ASC_NODE": 54.7377, "ARG_OF_PERICENTER": 317.2401, "MEAN_ANOMALY": 42.8003, "EPHEMERIS_TYPE": 0, "CLASSIFICATION_TYPE": "U", "NORAD_CAT_ID": 42920, "ELEMENT_SET_NO": 999, "REV_AT_EPOCH": 43870, "BSTAR": 0.00015071396, "MEAN_MOTION_DOT": 5.52e-06, "MEAN_MOTION_DDOT": 0}, "tle": {"line1": "1 42920U 17049A   25340.29093835  .00000552  00000+0  15071-3 0  9999", "line2": "2 42920  98.2459  54.7377 0010154 317.2401  42.8003 14.50999600438700"}}, "geometry": {"type": "Point", "coordinates": [-130.81700131046506, -35.17284732665876]}}]}